start=new Date('2023-03-20T00:00:00.000Z').valueOf();
sats=[{"RA_OF_ASC_NODE":"350.3955","INCLINATION":"53.2168","PERIAPSIS":"538.824","CENTER_NAME":"EARTH","TLE_LINE1":"1 52668U 22053N   23078.46077438  .00011022  00000-0  70927-3 0  9992","MEAN_MOTION_DDOT":"0.0000000000000","BSTAR":"0.00070927000000","TLE_LINE2":"2 52668  53.2168 350.3955 0001279 100.6948 259.4188 15.08851927 47061","OBJECT_TYPE":"PAYLOAD","MEAN_MOTION":"15.08851927","FILE":"3865049","APOAPSIS":"540.594","ELEMENT_SET_NO":"999","MEAN_ELEMENT_THEORY":"SGP4","LAUNCH_DATE":"2022-05-18","EPOCH":"2023-03-19T11:03:30.906432","ARG_OF_PERICENTER":"100.6948","DECAY_DATE":null,"NORAD_CAT_ID":"52668","OBJECT_NAME":"STARLINK-4067","MEAN_MOTION_DOT":"0.00011022","SEMIMAJOR_AXIS":"6917.844","EPHEMERIS_TYPE":"0","PERIOD":"95.437","CLASSIFICATION_TYPE":"U","RCS_SIZE":"LARGE","COUNTRY_CODE":"US","SITE":"AFETR","ECCENTRICITY":"0.00012790","REV_AT_EPOCH":"4706","GP_ID":"228445258","REF_FRAME":"TEME","TIME_SYSTEM":"UTC","OBJECT_ID":"2022-053N","MEAN_ANOMALY":"259.4188"},{"RCS_SIZE":"LARGE","CLASSIFICATION_TYPE":"U","PERIOD":"95.437","EPHEMERIS_TYPE":"0","SEMIMAJOR_AXIS":"6917.861","NORAD_CAT_ID":"52669","OBJECT_NAME":"STARLINK-3972","MEAN_MOTION_DOT":"0.00002576","ECCENTRICITY":"0.00012210","SITE":"AFETR","COUNTRY_CODE":"US","MEAN_ANOMALY":"293.2755","OBJECT_ID":"2022-053P","TIME_SYSTEM":"UTC","REF_FRAME":"TEME","REV_AT_EPOCH":"4712","GP_ID":"228478196","MEAN_MOTION_DDOT":"0.0000000000000","BSTAR":"0.00017986000000","TLE_LINE1":"1 52669U 22053P   23078.90605089  .00002576  00000-0  17986-3 0  9991","PERIAPSIS":"538.881","CENTER_NAME":"EARTH","INCLINATION":"53.2177","RA_OF_ASC_NODE":"348.3895","MEAN_MOTION":"15.08846305","OBJECT_TYPE":"PAYLOAD","TLE_LINE2":"2 52669  53.2177 348.3895 0001221  66.8366 293.2755 15.08846305 47123","ELEMENT_SET_NO":"999","APOAPSIS":"540.571","FILE":"3865354","ARG_OF_PERICENTER":"66.8366","DECAY_DATE":null,"EPOCH":"2023-03-19T21:44:42.796896","LAUNCH_DATE":"2022-05-18","MEAN_ELEMENT_THEORY":"SGP4"},{"PERIAPSIS":"538.513","CENTER_NAME":"EARTH","INCLINATION":"53.2178","RA_OF_ASC_NODE":"349.2537","MEAN_MOTION_DDOT":"0.0000000000000","BSTAR":"0.00021910000000","TLE_LINE1":"1 52670U 22053Q   23078.72942179  .00003202  00000-0  21910-3 0  9996","OBJECT_TYPE":"PAYLOAD","TLE_LINE2":"2 52670  53.2178 349.2537 0001734  89.7272 270.3918 15.08850724 47103","MEAN_MOTION":"15.08850724","APOAPSIS":"540.912","FILE":"3865354","ELEMENT_SET_NO":"999","LAUNCH_DATE":"2022-05-18","MEAN_ELEMENT_THEORY":"SGP4","DECAY_DATE":null,"ARG_OF_PERICENTER":"89.7272","EPOCH":"2023-03-19T17:30:22.042656","SEMIMAJOR_AXIS":"6917.848","MEAN_MOTION_DOT":"0.00003202","OBJECT_NAME":"STARLINK-4075","NORAD_CAT_ID":"52670","RCS_SIZE":"LARGE","CLASSIFICATION_TYPE":"U","PERIOD":"95.437","EPHEMERIS_TYPE":"0","SITE":"AFETR","COUNTRY_CODE":"US","ECCENTRICITY":"0.00017340","REF_FRAME":"TEME","GP_ID":"228476946","REV_AT_EPOCH":"4710","MEAN_ANOMALY":"270.3918","OBJECT_ID":"2022-053Q","TIME_SYSTEM":"UTC"},{"PERIOD":"95.437","EPHEMERIS_TYPE":"0","RCS_SIZE":"LARGE","CLASSIFICATION_TYPE":"U","MEAN_MOTION_DOT":"0.00020931","OBJECT_NAME":"STARLINK-4071","NORAD_CAT_ID":"52671","SEMIMAJOR_AXIS":"6917.863","ECCENTRICITY":"0.00008930","SITE":"AFETR","COUNTRY_CODE":"US","TIME_SYSTEM":"UTC","MEAN_ANOMALY":"271.6119","OBJECT_ID":"2022-053R","GP_ID":"228477196","REV_AT_EPOCH":"4712","REF_FRAME":"TEME","TLE_LINE1":"1 52671U 22053R   23078.90237315  .00020931  00000-0  13291-2 0  9996","MEAN_MOTION_DDOT":"0.0000000000000","BSTAR":"0.00132910000000","RA_OF_ASC_NODE":"348.4144","CENTER_NAME":"EARTH","PERIAPSIS":"539.110","INCLINATION":"53.2178","MEAN_MOTION":"15.08845793","OBJECT_TYPE":"PAYLOAD","TLE_LINE2":"2 52671  53.2178 348.4144 0000893  88.4975 271.6119 15.08845793 47129","ELEMENT_SET_NO":"999","FILE":"3865354","APOAPSIS":"540.345","DECAY_DATE":null,"ARG_OF_PERICENTER":"88.4975","EPOCH":"2023-03-19T21:39:25.040160","MEAN_ELEMENT_THEORY":"SGP4","LAUNCH_DATE":"2022-05-18"},{"CLASSIFICATION_TYPE":"U","RCS_SIZE":"LARGE","EPHEMERIS_TYPE":"0","PERIOD":"95.438","SEMIMAJOR_AXIS":"6917.878","OBJECT_NAME":"STARLINK-4073","MEAN_MOTION_DOT":"-0.00000921","NORAD_CAT_ID":"52672","ECCENTRICITY":"0.00013680","COUNTRY_CODE":"US","SITE":"AFETR","OBJECT_ID":"2022-053S","MEAN_ANOMALY":"263.8596","TIME_SYSTEM":"UTC","REF_FRAME":"TEME","GP_ID":"228477948","REV_AT_EPOCH":"4712","BSTAR":"-0.00003975200000","MEAN_MOTION_DDOT":"0.0000000000000","TLE_LINE1":"1 52672U 22053S   23078.91341003 -.00000921  00000-0 -39752-4 0  9999","INCLINATION":"53.2186","CENTER_NAME":"EARTH","PERIAPSIS":"538.797","RA_OF_ASC_NODE":"348.3650","MEAN_MOTION":"15.08840661","TLE_LINE2":"2 52672  53.2186 348.3650 0001368  96.2552 263.8596 15.08840661 47127","OBJECT_TYPE":"PAYLOAD","ELEMENT_SET_NO":"999","APOAPSIS":"540.690","FILE":"3865354","EPOCH":"2023-03-19T21:55:18.626592","DECAY_DATE":null,"ARG_OF_PERICENTER":"96.2552","LAUNCH_DATE":"2022-05-18","MEAN_ELEMENT_THEORY":"SGP4"},{"REF_FRAME":"TEME","REV_AT_EPOCH":"4712","GP_ID":"228478697","MEAN_ANOMALY":"274.2180","OBJECT_ID":"2022-053T","TIME_SYSTEM":"UTC","SITE":"AFETR","COUNTRY_CODE":"US","ECCENTRICITY":"0.00015420","SEMIMAJOR_AXIS":"6917.877","MEAN_MOTION_DOT":"0.00003004","NORAD_CAT_ID":"52673","OBJECT_NAME":"STARLINK-3976","RCS_SIZE":"LARGE","CLASSIFICATION_TYPE":"U","PERIOD":"95.437","EPHEMERIS_TYPE":"0","LAUNCH_DATE":"2022-05-18","MEAN_ELEMENT_THEORY":"SGP4","DECAY_DATE":null,"ARG_OF_PERICENTER":"85.8988","EPOCH":"2023-03-19T21:28:49.366848","APOAPSIS":"540.808","FILE":"3865354","ELEMENT_SET_NO":"999","TLE_LINE2":"2 52673  53.2168 348.4456 0001542  85.8988 274.2180 15.08841254 47128","OBJECT_TYPE":"PAYLOAD","MEAN_MOTION":"15.08841254","CENTER_NAME":"EARTH","PERIAPSIS":"538.675","INCLINATION":"53.2168","RA_OF_ASC_NODE":"348.4456","BSTAR":"0.00020674000000","MEAN_MOTION_DDOT":"0.0000000000000","TLE_LINE1":"1 52673U 22053T   23078.89501582  .00003004  00000-0  20674-3 0  9992"},{"APOAPSIS":"540.963","FILE":"3865354","ELEMENT_SET_NO":"999","LAUNCH_DATE":"2022-05-18","MEAN_ELEMENT_THEORY":"SGP4","EPOCH":"2023-03-19T21:50:00.844800","ARG_OF_PERICENTER":"103.1247","DECAY_DATE":null,"INCLINATION":"53.2190","PERIAPSIS":"538.536","CENTER_NAME":"EARTH","RA_OF_ASC_NODE":"348.3803","MEAN_MOTION_DDOT":"0.0000000000000","BSTAR":"-0.00013104000000","TLE_LINE1":"1 52674U 22053U   23078.90973200 -.00002373  00000-0 -13104-3 0  9995","TLE_LINE2":"2 52674  53.2190 348.3803 0001754 103.1247 256.9941 15.08838606 47136","OBJECT_TYPE":"PAYLOAD","MEAN_MOTION":"15.08838606","REF_FRAME":"TEME","REV_AT_EPOCH":"4713","GP_ID":"228477447","OBJECT_ID":"2022-053U","MEAN_ANOMALY":"256.9941","TIME_SYSTEM":"UTC","SEMIMAJOR_AXIS":"6917.885","OBJECT_NAME":"STARLINK-3936","NORAD_CAT_ID":"52674","MEAN_MOTION_DOT":"-0.00002373","CLASSIFICATION_TYPE":"U","RCS_SIZE":"LARGE","EPHEMERIS_TYPE":"0","PERIOD":"95.438","COUNTRY_CODE":"US","SITE":"AFETR","ECCENTRICITY":"0.00017540"},{"TIME_SYSTEM":"UTC","MEAN_ANOMALY":"284.0762","OBJECT_ID":"2022-053V","REV_AT_EPOCH":"4725","GP_ID":"228477697","REF_FRAME":"TEME","PERIOD":"95.438","EPHEMERIS_TYPE":"0","RCS_SIZE":"LARGE","CLASSIFICATION_TYPE":"U","OBJECT_NAME":"STARLINK-3934","NORAD_CAT_ID":"52675","MEAN_MOTION_DOT":"-0.00002348","SEMIMAJOR_AXIS":"6917.897","ECCENTRICITY":"0.00012560","SITE":"AFETR","COUNTRY_CODE":"US","ELEMENT_SET_NO":"999","FILE":"3865354","APOAPSIS":"540.631","DECAY_DATE":null,"ARG_OF_PERICENTER":"76.0370","EPOCH":"2023-03-19T21:24:50.981472","LAUNCH_DATE":"2022-05-18","MEAN_ELEMENT_THEORY":"SGP4","TLE_LINE1":"1 52675U 22053V   23078.89225673 -.00002348  00000-0 -12953-3 0  9991","MEAN_MOTION_DDOT":"0.0000000000000","BSTAR":"-0.00012953000000","RA_OF_ASC_NODE":"338.4603","PERIAPSIS":"538.893","CENTER_NAME":"EARTH","INCLINATION":"53.2170","MEAN_MOTION":"15.08834513","TLE_LINE2":"2 52675  53.2170 338.4603 0001256  76.0370 284.0762 15.08834513 47254","OBJECT_TYPE":"PAYLOAD"},{"MEAN_MOTION":"15.08846323","OBJECT_TYPE":"PAYLOAD","TLE_LINE2":"2 52676  53.2168 348.4292 0001330  95.4690 264.6454 15.08846323 47120","BSTAR":"0.00054863000000","MEAN_MOTION_DDOT":"0.0000000000000","TLE_LINE1":"1 52676U 22053W   23078.89869428  .00008456  00000-0  54863-3 0  9994","CENTER_NAME":"EARTH","PERIAPSIS":"538.806","INCLINATION":"53.2168","RA_OF_ASC_NODE":"348.4292","ARG_OF_PERICENTER":"95.4690","DECAY_DATE":null,"EPOCH":"2023-03-19T21:34:07.185792","MEAN_ELEMENT_THEORY":"SGP4","LAUNCH_DATE":"2022-05-18","ELEMENT_SET_NO":"999","APOAPSIS":"540.646","FILE":"3865354","ECCENTRICITY":"0.00013300","SITE":"AFETR","COUNTRY_CODE":"US","RCS_SIZE":"LARGE","CLASSIFICATION_TYPE":"U","PERIOD":"95.437","EPHEMERIS_TYPE":"0","SEMIMAJOR_AXIS":"6917.861","MEAN_MOTION_DOT":"0.00008456","OBJECT_NAME":"STARLINK-4006","NORAD_CAT_ID":"52676","MEAN_ANOMALY":"264.6454","OBJECT_ID":"2022-053W","TIME_SYSTEM":"UTC","REF_FRAME":"TEME","GP_ID":"228478449","REV_AT_EPOCH":"4712"},{"GP_ID":"228478197","REV_AT_EPOCH":"4723","REF_FRAME":"TEME","TIME_SYSTEM":"UTC","MEAN_ANOMALY":"263.0017","OBJECT_ID":"2022-053X","SITE":"AFETR","COUNTRY_CODE":"US","ECCENTRICITY":"0.00014930","OBJECT_NAME":"STARLINK-4028","NORAD_CAT_ID":"52677","MEAN_MOTION_DOT":"0.00005655","SEMIMAJOR_AXIS":"6917.901","PERIOD":"95.438","EPHEMERIS_TYPE":"0","RCS_SIZE":"LARGE","CLASSIFICATION_TYPE":"U","MEAN_ELEMENT_THEORY":"SGP4","LAUNCH_DATE":"2022-05-18","DECAY_DATE":null,"ARG_OF_PERICENTER":"97.1145","EPOCH":"2023-03-19T21:14:15.100800","FILE":"3865354","APOAPSIS":"540.799","ELEMENT_SET_NO":"999","TLE_LINE2":"2 52677  53.2188 338.4891 0001493  97.1145 263.0017 15.08833211 47233","OBJECT_TYPE":"PAYLOAD","MEAN_MOTION":"15.08833211","RA_OF_ASC_NODE":"338.4891","CENTER_NAME":"EARTH","PERIAPSIS":"538.733","INCLINATION":"53.2188","TLE_LINE1":"1 52677U 22053X   23078.88489700  .00005655  00000-0  37315-3 0  9996","BSTAR":"0.00037315000000","MEAN_MOTION_DDOT":"0.0000000000000"}];
